start=new Date('2022-09-12T00:00:00.000Z').valueOf();
sats=[{"EPHEMERIS_TYPE":"0","REV_AT_EPOCH":"11673","OBJECT_TYPE":"PAYLOAD","TIME_SYSTEM":"UTC","MEAN_MOTION_DDOT":"0.0000000000000","PERIAPSIS":"546.359","SEMIMAJOR_AXIS":"6925.348","EPOCH":"2022-09-11T19:21:41.565312","TLE_LINE1":"1 46037U 20055L   22254.80673108  .00000194  00000-0  31918-4 0  9990","TLE_LINE2":"2 46037  53.0544  89.8033 0001233  75.4037 284.7089 15.06400259116737","OBJECT_ID":"2020-055L","RA_OF_ASC_NODE":"89.8033","LAUNCH_DATE":"2020-08-07","SITE":"AFETR","APOAPSIS":"548.067","COUNTRY_CODE":"US","MEAN_MOTION_DOT":"0.00000194","INCLINATION":"53.0544","MEAN_MOTION":"15.06400259","MEAN_ANOMALY":"284.7089","ELEMENT_SET_NO":"999","DECAY_DATE":null,"OBJECT_NAME":"STARLINK-1565","GP_ID":"212354164","ECCENTRICITY":"0.00012330","REF_FRAME":"TEME","PERIOD":"95.592","RCS_SIZE":"LARGE","CENTER_NAME":"EARTH","NORAD_CAT_ID":"46037","FILE":"3569361","MEAN_ELEMENT_THEORY":"SGP4","CLASSIFICATION_TYPE":"U","BSTAR":"0.00003191800000","ARG_OF_PERICENTER":"75.4037"},{"MEAN_ANOMALY":"274.4270","MEAN_MOTION_DOT":"0.00000906","MEAN_MOTION":"15.06397500","INCLINATION":"53.0547","OBJECT_NAME":"STARLINK-1567","ELEMENT_SET_NO":"999","DECAY_DATE":null,"RCS_SIZE":"LARGE","PERIOD":"95.592","CENTER_NAME":"EARTH","GP_ID":"212354912","ECCENTRICITY":"0.00014630","REF_FRAME":"TEME","CLASSIFICATION_TYPE":"U","BSTAR":"0.00007972100000","ARG_OF_PERICENTER":"85.6886","FILE":"3569361","NORAD_CAT_ID":"46038","MEAN_ELEMENT_THEORY":"SGP4","REV_AT_EPOCH":"11673","OBJECT_TYPE":"PAYLOAD","EPHEMERIS_TYPE":"0","MEAN_MOTION_DDOT":"0.0000000000000","PERIAPSIS":"546.208","SEMIMAJOR_AXIS":"6925.356","EPOCH":"2022-09-11T19:42:55.448640","TLE_LINE1":"1 46038U 20055M   22254.82147510  .00000906  00000-0  79721-4 0  9991","TLE_LINE2":"2 46038  53.0547  89.7151 0001463  85.6886 274.4270 15.06397500116733","TIME_SYSTEM":"UTC","RA_OF_ASC_NODE":"89.7151","OBJECT_ID":"2020-055M","APOAPSIS":"548.234","COUNTRY_CODE":"US","LAUNCH_DATE":"2020-08-07","SITE":"AFETR"},{"FILE":"3569083","NORAD_CAT_ID":"46039","MEAN_ELEMENT_THEORY":"SGP4","BSTAR":"0.00006622700000","ARG_OF_PERICENTER":"68.5853","CLASSIFICATION_TYPE":"U","REF_FRAME":"TEME","GP_ID":"212328663","ECCENTRICITY":"0.00011970","RCS_SIZE":"LARGE","PERIOD":"95.592","CENTER_NAME":"EARTH","ELEMENT_SET_NO":"999","DECAY_DATE":null,"OBJECT_NAME":"STARLINK-1569","MEAN_MOTION_DOT":"0.00000705","MEAN_MOTION":"15.06402030","INCLINATION":"53.0539","MEAN_ANOMALY":"291.5264","LAUNCH_DATE":"2020-08-07","SITE":"AFETR","APOAPSIS":"548.036","COUNTRY_CODE":"US","OBJECT_ID":"2020-055N","RA_OF_ASC_NODE":"89.6818","TIME_SYSTEM":"UTC","SEMIMAJOR_AXIS":"6925.342","PERIAPSIS":"546.378","MEAN_MOTION_DDOT":"0.0000000000000","EPOCH":"2022-09-11T19:53:32.201088","TLE_LINE2":"2 46039  53.0539  89.6818 0001197  68.5853 291.5264 15.06402030116224","TLE_LINE1":"1 46039U 20055N   22254.82884492  .00000705  00000-0  66227-4 0  9993","EPHEMERIS_TYPE":"0","REV_AT_EPOCH":"11622","OBJECT_TYPE":"PAYLOAD"},{"DECAY_DATE":null,"ELEMENT_SET_NO":"999","OBJECT_NAME":"STARLINK-1576","MEAN_MOTION_DOT":"0.00000411","INCLINATION":"53.0541","MEAN_MOTION":"15.06400255","MEAN_ANOMALY":"269.2032","NORAD_CAT_ID":"46040","FILE":"3569081","MEAN_ELEMENT_THEORY":"SGP4","BSTAR":"0.00004651000000","CLASSIFICATION_TYPE":"U","ARG_OF_PERICENTER":"90.9103","ECCENTRICITY":"0.00012690","GP_ID":"212328632","REF_FRAME":"TEME","RCS_SIZE":"LARGE","CENTER_NAME":"EARTH","PERIOD":"95.592","TIME_SYSTEM":"UTC","PERIAPSIS":"546.334","SEMIMAJOR_AXIS":"6925.348","MEAN_MOTION_DDOT":"0.0000000000000","EPOCH":"2022-09-11T20:36:00.216576","TLE_LINE1":"1 46040U 20055P   22254.85833584  .00000411  00000-0  46510-4 0  9991","TLE_LINE2":"2 46040  53.0541  89.5493 0001269  90.9103 269.2032 15.06400255116237","EPHEMERIS_TYPE":"0","REV_AT_EPOCH":"11623","OBJECT_TYPE":"PAYLOAD","LAUNCH_DATE":"2020-08-07","SITE":"AFETR","APOAPSIS":"548.092","COUNTRY_CODE":"US","OBJECT_ID":"2020-055P","RA_OF_ASC_NODE":"89.5493"},{"MEAN_ANOMALY":"288.5963","MEAN_MOTION_DOT":"0.00000970","INCLINATION":"53.0541","MEAN_MOTION":"15.06397038","OBJECT_NAME":"STARLINK-1580","DECAY_DATE":null,"ELEMENT_SET_NO":"999","CENTER_NAME":"EARTH","RCS_SIZE":"LARGE","PERIOD":"95.592","GP_ID":"212354664","ECCENTRICITY":"0.00014500","REF_FRAME":"TEME","ARG_OF_PERICENTER":"71.5183","BSTAR":"0.00008402300000","CLASSIFICATION_TYPE":"U","NORAD_CAT_ID":"46041","FILE":"3569361","MEAN_ELEMENT_THEORY":"SGP4","REV_AT_EPOCH":"11671","OBJECT_TYPE":"PAYLOAD","EPHEMERIS_TYPE":"0","SEMIMAJOR_AXIS":"6925.358","PERIAPSIS":"546.218","EPOCH":"2022-09-11T20:51:56.618784","MEAN_MOTION_DDOT":"0.0000000000000","TLE_LINE1":"1 46041U 20055Q   22254.86940531  .00000970  00000-0  84023-4 0  9995","TLE_LINE2":"2 46041  53.0541  89.5914 0001450  71.5183 288.5963 15.06397038116715","TIME_SYSTEM":"UTC","RA_OF_ASC_NODE":"89.5914","OBJECT_ID":"2020-055Q","APOAPSIS":"548.227","COUNTRY_CODE":"US","LAUNCH_DATE":"2020-08-07","SITE":"AFETR"},{"TIME_SYSTEM":"UTC","EPOCH":"2022-09-11T20:14:46.177728","PERIAPSIS":"546.291","SEMIMAJOR_AXIS":"6925.347","MEAN_MOTION_DDOT":"0.0000000000000","TLE_LINE1":"1 46042U 20055R   22254.84359002  .00000712  00000-0  66682-4 0  9996","TLE_LINE2":"2 46042  53.0548  89.6182 0001329  84.5521 275.5619 15.06400550116703","EPHEMERIS_TYPE":"0","REV_AT_EPOCH":"11670","OBJECT_TYPE":"PAYLOAD","LAUNCH_DATE":"2020-08-07","SITE":"AFETR","APOAPSIS":"548.132","COUNTRY_CODE":"US","OBJECT_ID":"2020-055R","RA_OF_ASC_NODE":"89.6182","ELEMENT_SET_NO":"999","DECAY_DATE":null,"OBJECT_NAME":"STARLINK-1581","MEAN_MOTION_DOT":"0.00000712","INCLINATION":"53.0548","MEAN_MOTION":"15.06400550","MEAN_ANOMALY":"275.5619","NORAD_CAT_ID":"46042","FILE":"3569361","MEAN_ELEMENT_THEORY":"SGP4","ARG_OF_PERICENTER":"84.5521","BSTAR":"0.00006668200000","CLASSIFICATION_TYPE":"U","ECCENTRICITY":"0.00013290","GP_ID":"212354413","REF_FRAME":"TEME","RCS_SIZE":"LARGE","PERIOD":"95.592","CENTER_NAME":"EARTH"},{"RA_OF_ASC_NODE":"89.9575","OBJECT_ID":"2020-055S","COUNTRY_CODE":"US","APOAPSIS":"548.237","SITE":"AFETR","LAUNCH_DATE":"2020-08-07","OBJECT_TYPE":"PAYLOAD","REV_AT_EPOCH":"11672","EPHEMERIS_TYPE":"0","TLE_LINE2":"2 46043  53.0529  89.9575 0001453  78.0429 282.0723 15.06394480116720","TLE_LINE1":"1 46043U 20055S   22254.76987664 -.00000125  00000-0  10500-4 0  9996","PERIAPSIS":"546.224","SEMIMAJOR_AXIS":"6925.365","MEAN_MOTION_DDOT":"0.0000000000000","EPOCH":"2022-09-11T18:28:37.341696","TIME_SYSTEM":"UTC","CENTER_NAME":"EARTH","RCS_SIZE":"LARGE","PERIOD":"95.592","GP_ID":"212353164","REF_FRAME":"TEME","ECCENTRICITY":"0.00014530","ARG_OF_PERICENTER":"78.0429","BSTAR":"0.00001050000000","CLASSIFICATION_TYPE":"U","MEAN_ELEMENT_THEORY":"SGP4","FILE":"3569361","NORAD_CAT_ID":"46043","MEAN_ANOMALY":"282.0723","MEAN_MOTION":"15.06394480","INCLINATION":"53.0529","MEAN_MOTION_DOT":"-0.00000125","OBJECT_NAME":"STARLINK-1582","DECAY_DATE":null,"ELEMENT_SET_NO":"999"},{"DECAY_DATE":null,"ELEMENT_SET_NO":"999","OBJECT_NAME":"STARLINK-1584","MEAN_MOTION_DOT":"0.00000649","MEAN_MOTION":"15.06407095","INCLINATION":"53.0557","MEAN_ANOMALY":"253.4557","FILE":"3569082","NORAD_CAT_ID":"46044","MEAN_ELEMENT_THEORY":"SGP4","BSTAR":"0.00006243900000","CLASSIFICATION_TYPE":"U","ARG_OF_PERICENTER":"106.6578","GP_ID":"212328640","ECCENTRICITY":"0.00013330","REF_FRAME":"TEME","RCS_SIZE":"LARGE","PERIOD":"95.592","CENTER_NAME":"EARTH","TIME_SYSTEM":"UTC","SEMIMAJOR_AXIS":"6925.327","PERIAPSIS":"546.269","EPOCH":"2022-09-11T20:24:01.931040","MEAN_MOTION_DDOT":"0.0000000000000","TLE_LINE1":"1 46044U 20055T   22254.85002235  .00000649  00000-0  62439-4 0  9997","TLE_LINE2":"2 46044  53.0557  89.5931 0001333 106.6578 253.4557 15.06407095116234","EPHEMERIS_TYPE":"0","REV_AT_EPOCH":"11623","OBJECT_TYPE":"PAYLOAD","LAUNCH_DATE":"2020-08-07","SITE":"AFETR","APOAPSIS":"548.115","COUNTRY_CODE":"US","OBJECT_ID":"2020-055T","RA_OF_ASC_NODE":"89.5931"},{"DECAY_DATE":null,"ELEMENT_SET_NO":"999","OBJECT_NAME":"STARLINK-1591","INCLINATION":"53.0555","MEAN_MOTION":"15.06394280","MEAN_MOTION_DOT":"0.00000245","MEAN_ANOMALY":"269.5121","MEAN_ELEMENT_THEORY":"SGP4","NORAD_CAT_ID":"46045","FILE":"3569361","ARG_OF_PERICENTER":"90.6037","BSTAR":"0.00003534700000","CLASSIFICATION_TYPE":"U","ECCENTRICITY":"0.00014790","GP_ID":"212354165","REF_FRAME":"TEME","PERIOD":"95.593","RCS_SIZE":"LARGE","CENTER_NAME":"EARTH","TIME_SYSTEM":"UTC","TLE_LINE1":"1 46045U 20055U   22254.86202353  .00000245  00000-0  35347-4 0  9992","TLE_LINE2":"2 46045  53.0555  89.5434 0001479  90.6037 269.5121 15.06394280116724","PERIAPSIS":"546.207","SEMIMAJOR_AXIS":"6925.366","EPOCH":"2022-09-11T20:41:18.832992","MEAN_MOTION_DDOT":"0.0000000000000","EPHEMERIS_TYPE":"0","OBJECT_TYPE":"PAYLOAD","REV_AT_EPOCH":"11672","SITE":"AFETR","LAUNCH_DATE":"2020-08-07","COUNTRY_CODE":"US","APOAPSIS":"548.255","OBJECT_ID":"2020-055U","RA_OF_ASC_NODE":"89.5434"},{"BSTAR":"0.00013214000000","ARG_OF_PERICENTER":"95.1944","CLASSIFICATION_TYPE":"U","MEAN_ELEMENT_THEORY":"SGP4","FILE":"3569361","NORAD_CAT_ID":"46047","RCS_SIZE":"LARGE","PERIOD":"95.592","CENTER_NAME":"EARTH","GP_ID":"212354913","REF_FRAME":"TEME","ECCENTRICITY":"0.00012550","OBJECT_NAME":"STARLINK-1524","ELEMENT_SET_NO":"999","DECAY_DATE":null,"MEAN_ANOMALY":"264.9188","MEAN_MOTION":"15.06397727","INCLINATION":"53.0541","MEAN_MOTION_DOT":"0.00001687","COUNTRY_CODE":"US","APOAPSIS":"548.090","SITE":"AFETR","LAUNCH_DATE":"2020-08-07","RA_OF_ASC_NODE":"80.0393","OBJECT_ID":"2020-055W","TLE_LINE1":"1 46047U 20055W   22254.74867802  .00001687  00000-0  13214-3 0  9996","TLE_LINE2":"2 46047  53.0541  80.0393 0001255  95.1944 264.9188 15.06397727116866","PERIAPSIS":"546.351","SEMIMAJOR_AXIS":"6925.356","MEAN_MOTION_DDOT":"0.0000000000000","EPOCH":"2022-09-11T17:58:05.780928","TIME_SYSTEM":"UTC","OBJECT_TYPE":"PAYLOAD","REV_AT_EPOCH":"11686","EPHEMERIS_TYPE":"0"}];
